{
  "previous_tles": {
    "46052": {
      "line1": "1 46052U 20055AB  26185.66670139  .00752914  26365-3  16004-2 0  9995",
      "line2": "2 46052  53.1504 262.4050 0013185 351.2984  66.4540 15.97997613  5935"
    },
    "27424": {
      "line1": "1 27424U 02022A   26185.66240198  .00001188  00000+0  24574-3 0  9995",
      "line2": "2 27424  98.4287 155.2954 0000681  88.0238  84.8708 14.62187266285827"
    },
    "25994": {
      "line1": "1 25994U 99068A   26185.63628185  .00000621  00000+0  13521-3 0  9995",
      "line2": "2 25994  97.9446 234.4899 0002873 143.9918  16.3015 14.61118561412157"
    },
    "43013": {
      "line1": "1 43013U 17073A   26185.62291069  .00000098  00000+0  67613-4 0  9999",
      "line2": "2 43013  98.7772 124.9308 0000956 132.9993 227.1264 14.19515144446942"
    },
    "20580": {
      "line1": "1 20580U 90037B   26185.61459300  .00011562  00000+0  36736-3 0  9996",
      "line2": "2 20580  28.4737 321.4511 0001716 358.4915   1.5676 15.30968404791243"
    },
    "39084": {
      "line1": "1 39084U 13008A   26185.60427120  .00000486  00000+0  11793-3 0  9991",
      "line2": "2 39084  98.2295 255.5321 0001354  93.7576 266.3777 14.57107282700433"
    },
    "37849": {
      "line1": "1 37849U 11061A   26185.53912346  .00000115  00000+0  75388-4 0  9996",
      "line2": "2 37849  98.7955 126.2968 0000622 296.9785  63.1328 14.19521194760908"
    },
    "25544": {
      "line1": "1 25544U 98067A   26185.47597407  .00009720  00000+0  18499-3 0  9996",
      "line2": "2 25544  51.6303 214.5154 0006744 255.1217 104.9025 15.48889796574435"
    },
    "33591": {
      "line1": "1 33591U 09005A   26185.46370761  .00000053  00000+0  52038-4 0  9990",
      "line2": "2 33591  98.9514 256.3506 0013391 346.0063  14.0737 14.13476942896922"
    },
    "46356": {
      "line1": "1 46356U 20062AH  26178.09828745  .09495866  12368-4  50765-3 0  9998",
      "line2": "2 46356  53.0154 147.1846 0007262 242.6624 117.3684 16.42186075322173"
    }
  },
  "baseline_history": {},
  "maneuver_events": {},
  "satnogs_health": {
    "20580": {
      "norad_id": 20580,
      "total_observations": 0,
      "good_count": 0,
      "bad_count": 0,
      "unvetted_count": 0,
      "success_rate": null,
      "is_degraded": false,
      "reason": "not enough vetted observations yet to judge"
    },
    "25544": {
      "norad_id": 25544,
      "total_observations": 25,
      "good_count": 0,
      "bad_count": 0,
      "unvetted_count": 25,
      "success_rate": null,
      "is_degraded": false,
      "reason": "not enough vetted observations yet to judge"
    },
    "25994": {
      "norad_id": 25994,
      "total_observations": 25,
      "good_count": 0,
      "bad_count": 0,
      "unvetted_count": 25,
      "success_rate": null,
      "is_degraded": false,
      "reason": "not enough vetted observations yet to judge"
    },
    "27424": {
      "norad_id": 27424,
      "total_observations": 25,
      "good_count": 1,
      "bad_count": 2,
      "unvetted_count": 22,
      "success_rate": 0.3333333333333333,
      "is_degraded": true,
      "reason": "only 1/3 recent vetted observations were good (33%) -- worth checking against the TLE-residual signal"
    },
    "33591": {
      "norad_id": 33591,
      "total_observations": 25,
      "good_count": 4,
      "bad_count": 1,
      "unvetted_count": 20,
      "success_rate": 0.8,
      "is_degraded": false,
      "reason": "4/5 recent vetted observations were good (80%)"
    },
    "37849": {
      "norad_id": 37849,
      "total_observations": 25,
      "good_count": 0,
      "bad_count": 25,
      "unvetted_count": 0,
      "success_rate": 0.0,
      "is_degraded": true,
      "reason": "only 0/25 recent vetted observations were good (0%) -- worth checking against the TLE-residual signal"
    },
    "39084": {
      "norad_id": 39084,
      "total_observations": 25,
      "good_count": 1,
      "bad_count": 2,
      "unvetted_count": 22,
      "success_rate": 0.3333333333333333,
      "is_degraded": true,
      "reason": "only 1/3 recent vetted observations were good (33%) -- worth checking against the TLE-residual signal"
    },
    "43013": {
      "norad_id": 43013,
      "total_observations": 25,
      "good_count": 0,
      "bad_count": 10,
      "unvetted_count": 15,
      "success_rate": 0.0,
      "is_degraded": true,
      "reason": "only 0/10 recent vetted observations were good (0%) -- worth checking against the TLE-residual signal"
    },
    "46052": {
      "norad_id": 46052,
      "total_observations": 0,
      "good_count": 0,
      "bad_count": 0,
      "unvetted_count": 0,
      "success_rate": null,
      "is_degraded": false,
      "reason": "not enough vetted observations yet to judge"
    },
    "46356": {
      "norad_id": 46356,
      "total_observations": 0,
      "good_count": 0,
      "bad_count": 0,
      "unvetted_count": 0,
      "success_rate": null,
      "is_degraded": false,
      "reason": "not enough vetted observations yet to judge"
    }
  }
}